{"version": 0.6, "generator": "Overpass API 0.7.61.5 4133829e", "osm3s": {"timestamp_osm_base": "2024-03-06T03:17:45Z", "copyright": "The data included in this document is from www.openstreetmap.org. The data is made available under ODbL."}, "elements": [{"type": "node", "id": 8589048920, "lat": -6.3019455, "lon": 106.8144007, "tags": {"bus": "yes", "highway": "bus_stop", "name": "Jalan Kampung Utan Cilandak KKO", "network": "Transjakarta", "network:wikidata": "Q1671143", "operator": "PT Transjakarta, AKD, Mikrolet", "public_transport": "platform", "shelter": "no"}}, {"type": "node", "id": 8589048921, "lat": -6.2994034, "lon": 106.8147868, "tags": {"bus": "yes", "highway": "bus_stop", "name": "Gang Cemara Cilandak KKO", "network": "Transjakarta", "network:wikidata": "Q1671143", "operator": "PT Transjakarta, AKD, Mikrolet", "public_transport": "platform", "shelter": "no"}}, {"type": "node", "id": 8589059317, "lat": -6.2994873, "lon": 106.8146202, "tags": {"bus": "yes", "highway": "bus_stop", "name": "Seberang Gang Cemara Cilandak KKO", "network": "Transjakarta", "network:wikidata": "Q1671143", "operator": "PT Transjakarta, AKD, Mikrolet", "public_transport": "platform", "shelter": "no"}}, {"type": "node", "id": 9916395017, "lat": -6.3003688, "lon": 106.8211432, "tags": {"bus": "yes", "highway": "bus_stop", "name": "PLN Corporate University 1", "network": "Transjakarta", "network:wikidata": "Q1671143", "operator": "PT Transjakarta", "public_transport": "platform", "shelter": "no"}}, {"type": "node", "id": 9916412421, "lat": -6.2972182, "lon": 106.8212617, "tags": {"bus": "yes", "highway": "bus_stop", "name": "Kementerian Pertanian", "network": "Transjakarta", "network:wikidata": "Q1671143", "operator": "PT Transjakarta", "public_transport": "platform", "shelter": "no"}}, {"type": "node", "id": 9916798532, "lat": -6.3010398, "lon": 106.8214139, "tags": {"bus": "yes", "highway": "bus_stop", "name": "PLN Corporate University 2", "network": "Transjakarta", "network:wikidata": "Q1671143", "operator": "PT Transjakarta", "public_transport": "platform", "shelter": "no"}}, {"type": "node", "id": 11663592912, "lat": -6.3017345, "lon": 106.8143185, "tags": {"bus": "yes", "highway": "bus_stop", "name": "Seberang Jalan Kampung Utan", "network": "Transjakarta", "network:wikidata": "Q1671143", "public_transport": "platform"}}, {"type": "node", "id": 11663592931, "lat": -6.304382, "lon": 106.8209436, "tags": {"bus": "yes", "highway": "bus_stop", "name": "Badan Diklat Kejaksaan RI", "network": "Transjakarta", "network:wikidata": "Q1671143", "public_transport": "platform"}}, {"type": "node", "id": 11663592933, "lat": -6.3041701, "lon": 106.8208068, "tags": {"bus": "yes", "highway": "bus_stop", "name": "Jalan Haji Khair", "network": "Transjakarta", "network:wikidata": "Q1671143", "public_transport": "platform"}}, {"type": "node", "id": 11663592935, "lat": -6.3019164, "lon": 106.821146, "tags": {"bus": "yes", "highway": "bus_stop", "name": "Masjid Jami Nurul Falah", "network": "Transjakarta", "network:wikidata": "Q1671143", "public_transport": "platform"}}]}